[{"OBJECT_NAME":"STARLINK-35485","OBJECT_ID":"2025-245T","EPOCH":"2025-11-12T06:00:02.999808","MEAN_MOTION":15.76545933,"ECCENTRICITY":9.131e-5,"INCLINATION":53.1531,"RA_OF_ASC_NODE":115.0492,"ARG_OF_PERICENTER":73.4323,"MEAN_ANOMALY":33.9391,"EPHEMERIS_TYPE":0,"CLASSIFICATION_TYPE":"U","NORAD_CAT_ID":66251,"ELEMENT_SET_NO":999,"REV_AT_EPOCH":299,"BSTAR":-0.009855851,"MEAN_MOTION_DOT":-0.01418893,"MEAN_MOTION_DDOT":0},{"OBJECT_NAME":"STARLINK-35483","OBJECT_ID":"2025-245U","EPOCH":"2025-11-12T06:00:02.999808","MEAN_MOTION":15.76404139,"ECCENTRICITY":8.373e-5,"INCLINATION":53.153,"RA_OF_ASC_NODE":115.0394,"ARG_OF_PERICENTER":67.1326,"MEAN_ANOMALY":44.5573,"EPHEMERIS_TYPE":0,"CLASSIFICATION_TYPE":"U","NORAD_CAT_ID":66252,"ELEMENT_SET_NO":999,"REV_AT_EPOCH":315,"BSTAR":-0.010404994,"MEAN_MOTION_DOT":-0.01480135,"MEAN_MOTION_DDOT":0},{"OBJECT_NAME":"STARLINK-35486","OBJECT_ID":"2025-245V","EPOCH":"2025-11-12T06:00:02.999808","MEAN_MOTION":15.76359027,"ECCENTRICITY":0.000101,"INCLINATION":53.1534,"RA_OF_ASC_NODE":115.0361,"ARG_OF_PERICENTER":67.8796,"MEAN_ANOMALY":45.8647,"EPHEMERIS_TYPE":0,"CLASSIFICATION_TYPE":"U","NORAD_CAT_ID":66253,"ELEMENT_SET_NO":999,"REV_AT_EPOCH":299,"BSTAR":-0.010561424,"MEAN_MOTION_DOT":-0.01497139,"MEAN_MOTION_DDOT":0},{"OBJECT_NAME":"STARLINK-35488","OBJECT_ID":"2025-245W","EPOCH":"2025-11-12T06:00:02.999808","MEAN_MOTION":15.76279154,"ECCENTRICITY":0.00011539,"INCLINATION":53.1531,"RA_OF_ASC_NODE":115.0307,"ARG_OF_PERICENTER":68.0973,"MEAN_ANOMALY":47.7682,"EPHEMERIS_TYPE":0,"CLASSIFICATION_TYPE":"U","NORAD_CAT_ID":66254,"ELEMENT_SET_NO":999,"REV_AT_EPOCH":320,"BSTAR":-0.010689842,"MEAN_MOTION_DOT":-0.01508476,"MEAN_MOTION_DDOT":0},{"OBJECT_NAME":"STARLINK-35616","OBJECT_ID":"2025-245X","EPOCH":"2025-11-12T06:00:02.999808","MEAN_MOTION":15.76227337,"ECCENTRICITY":0.00011059,"INCLINATION":53.1535,"RA_OF_ASC_NODE":115.0267,"ARG_OF_PERICENTER":69.6635,"MEAN_ANOMALY":48.2615,"EPHEMERIS_TYPE":0,"CLASSIFICATION_TYPE":"U","NORAD_CAT_ID":66255,"ELEMENT_SET_NO":999,"REV_AT_EPOCH":320,"BSTAR":-0.010852268,"MEAN_MOTION_DOT":-0.0152542,"MEAN_MOTION_DDOT":0},{"OBJECT_NAME":"STARLINK-35619","OBJECT_ID":"2025-245Y","EPOCH":"2025-11-12T06:00:02.999808","MEAN_MOTION":15.76039629,"ECCENTRICITY":0.00011265,"INCLINATION":53.1531,"RA_OF_ASC_NODE":115.0136,"ARG_OF_PERICENTER":58.3672,"MEAN_ANOMALY":65.6933,"EPHEMERIS_TYPE":0,"CLASSIFICATION_TYPE":"U","NORAD_CAT_ID":66256,"ELEMENT_SET_NO":999,"REV_AT_EPOCH":320,"BSTAR":-0.010777536,"MEAN_MOTION_DOT":-0.01505149,"MEAN_MOTION_DDOT":0},{"OBJECT_NAME":"STARLINK-35615","OBJECT_ID":"2025-245Z","EPOCH":"2025-11-12T06:00:02.999808","MEAN_MOTION":15.76095477,"ECCENTRICITY":9.333e-5,"INCLINATION":53.1532,"RA_OF_ASC_NODE":115.0184,"ARG_OF_PERICENTER":70.0635,"MEAN_ANOMALY":51.9708,"EPHEMERIS_TYPE":0,"CLASSIFICATION_TYPE":"U","NORAD_CAT_ID":66257,"ELEMENT_SET_NO":999,"REV_AT_EPOCH":320,"BSTAR":-0.010800079,"MEAN_MOTION_DOT":-0.01511077,"MEAN_MOTION_DDOT":0},{"OBJECT_NAME":"STARLINK-34650","OBJECT_ID":"2025-245AA","EPOCH":"2025-11-12T06:00:02.999808","MEAN_MOTION":15.76204138,"ECCENTRICITY":9.808e-5,"INCLINATION":53.1534,"RA_OF_ASC_NODE":115.0227,"ARG_OF_PERICENTER":79.4928,"MEAN_ANOMALY":40.4064,"EPHEMERIS_TYPE":0,"CLASSIFICATION_TYPE":"U","NORAD_CAT_ID":66258,"ELEMENT_SET_NO":999,"REV_AT_EPOCH":320,"BSTAR":-0.010894459,"MEAN_MOTION_DOT":-0.01529141,"MEAN_MOTION_DDOT":0},{"OBJECT_NAME":"STARLINK-35529","OBJECT_ID":"2025-245AB","EPOCH":"2025-11-12T06:00:02.999808","MEAN_MOTION":15.75951424,"ECCENTRICITY":0.00011106,"INCLINATION":53.1535,"RA_OF_ASC_NODE":115.0053,"ARG_OF_PERICENTER":67.7045,"MEAN_ANOMALY":60.4036,"EPHEMERIS_TYPE":0,"CLASSIFICATION_TYPE":"U","NORAD_CAT_ID":66259,"ELEMENT_SET_NO":999,"REV_AT_EPOCH":320,"BSTAR":-0.011200894,"MEAN_MOTION_DOT":-0.0155142,"MEAN_MOTION_DDOT":0},{"OBJECT_NAME":"STARLINK-35420","OBJECT_ID":"2025-245AC","EPOCH":"2025-11-12T06:00:02.999808","MEAN_MOTION":15.75992423,"ECCENTRICITY":9.469e-5,"INCLINATION":53.1533,"RA_OF_ASC_NODE":115.0095,"ARG_OF_PERICENTER":64.5958,"MEAN_ANOMALY":61.4825,"EPHEMERIS_TYPE":0,"CLASSIFICATION_TYPE":"U","NORAD_CAT_ID":66260,"ELEMENT_SET_NO":999,"REV_AT_EPOCH":320,"BSTAR":-0.010858618,"MEAN_MOTION_DOT":-0.01512171,"MEAN_MOTION_DDOT":0},{"OBJECT_NAME":"STARLINK-35536","OBJECT_ID":"2025-245AD","EPOCH":"2025-11-12T06:00:02.999808","MEAN_MOTION":15.75828499,"ECCENTRICITY":7.725e-5,"INCLINATION":53.1535,"RA_OF_ASC_NODE":115.0013,"ARG_OF_PERICENTER":73.6716,"MEAN_ANOMALY":56.5802,"EPHEMERIS_TYPE":0,"CLASSIFICATION_TYPE":"U","NORAD_CAT_ID":66261,"ELEMENT_SET_NO":999,"REV_AT_EPOCH":320,"BSTAR":-0.011286763,"MEAN_MOTION_DOT":-0.01554133,"MEAN_MOTION_DDOT":0},{"OBJECT_NAME":"STARLINK-35487","OBJECT_ID":"2025-245AE","EPOCH":"2025-11-12T06:00:02.999808","MEAN_MOTION":15.75755551,"ECCENTRICITY":0.00010873,"INCLINATION":53.1537,"RA_OF_ASC_NODE":114.9965,"ARG_OF_PERICENTER":64.4129,"MEAN_ANOMALY":67.8772,"EPHEMERIS_TYPE":0,"CLASSIFICATION_TYPE":"U","NORAD_CAT_ID":66262,"ELEMENT_SET_NO":999,"REV_AT_EPOCH":315,"BSTAR":-0.011284502,"MEAN_MOTION_DOT":-0.01549686,"MEAN_MOTION_DDOT":0}]
